[{"OBJECT_NAME":"ONEWEB-0438","OBJECT_ID":"2022-012N","EPOCH":"2026-04-11T03:17:25.546272","MEAN_MOTION":13.10377441,"ECCENTRICITY":0.0001694,"INCLINATION":87.8834,"RA_OF_ASC_NODE":49.6226,"ARG_OF_PERICENTER":82.205,"MEAN_ANOMALY":277.9269,"EPHEMERIS_TYPE":0,"CLASSIFICATION_TYPE":"U","NORAD_CAT_ID":51634,"ELEMENT_SET_NO":999,"REV_AT_EPOCH":20056,"BSTAR":0.00073244,"MEAN_MOTION_DOT":2.68e-06,"MEAN_MOTION_DDOT":0.0},{"OBJECT_NAME":"ONEWEB-0439","OBJECT_ID":"2022-012P","EPOCH":"2026-04-11T07:02:08.998944","MEAN_MOTION":13.10377286,"ECCENTRICITY":0.000193,"INCLINATION":87.8831,"RA_OF_ASC_NODE":49.5798,"ARG_OF_PERICENTER":83.2156,"MEAN_ANOMALY":276.9191,"EPHEMERIS_TYPE":0,"CLASSIFICATION_TYPE":"U","NORAD_CAT_ID":51635,"ELEMENT_SET_NO":999,"REV_AT_EPOCH":20056,"BSTAR":0.0013847000000000002,"MEAN_MOTION_DOT":4.96e-06,"MEAN_MOTION_DDOT":0.0},{"OBJECT_NAME":"ONEWEB-0442","OBJECT_ID":"2022-012Q","EPOCH":"2026-04-11T00:01:35.182560","MEAN_MOTION":13.17652594,"ECCENTRICITY":0.0001241,"INCLINATION":87.9187,"RA_OF_ASC_NODE":19.2224,"ARG_OF_PERICENTER":85.5396,"MEAN_ANOMALY":274.5877,"EPHEMERIS_TYPE":0,"CLASSIFICATION_TYPE":"U","NORAD_CAT_ID":51636,"ELEMENT_SET_NO":999,"REV_AT_EPOCH":20482,"BSTAR":8.1625e-05,"MEAN_MOTION_DOT":4.5e-07,"MEAN_MOTION_DDOT":0.0},{"OBJECT_NAME":"ONEWEB-0443","OBJECT_ID":"2022-012R","EPOCH":"2026-04-11T05:57:34.752960","MEAN_MOTION":13.17651426,"ECCENTRICITY":0.000183,"INCLINATION":87.9181,"RA_OF_ASC_NODE":19.1756,"ARG_OF_PERICENTER":88.7835,"MEAN_ANOMALY":271.3506,"EPHEMERIS_TYPE":0,"CLASSIFICATION_TYPE":"U","NORAD_CAT_ID":51637,"ELEMENT_SET_NO":999,"REV_AT_EPOCH":20490,"BSTAR":0.00021532000000000002,"MEAN_MOTION_DOT":9.6e-07,"MEAN_MOTION_DDOT":0.0},{"OBJECT_NAME":"ONEWEB-0444","OBJECT_ID":"2022-012S","EPOCH":"2026-04-11T06:47:46.285440","MEAN_MOTION":13.10374332,"ECCENTRICITY":0.0001929,"INCLINATION":87.8832,"RA_OF_ASC_NODE":49.5807,"ARG_OF_PERICENTER":85.4574,"MEAN_ANOMALY":274.6773,"EPHEMERIS_TYPE":0,"CLASSIFICATION_TYPE":"U","NORAD_CAT_ID":51638,"ELEMENT_SET_NO":999,"REV_AT_EPOCH":20057,"BSTAR":-3.9240000000000004e-05,"MEAN_MOTION_DOT":-1e-08,"MEAN_MOTION_DDOT":0.0},{"OBJECT_NAME":"ONEWEB-0445","OBJECT_ID":"2022-012T","EPOCH":"2026-04-11T03:39:00.265824","MEAN_MOTION":13.10379963,"ECCENTRICITY":0.0001926,"INCLINATION":87.884,"RA_OF_ASC_NODE":49.589,"ARG_OF_PERICENTER":74.0168,"MEAN_ANOMALY":286.1172,"EPHEMERIS_TYPE":0,"CLASSIFICATION_TYPE":"U","NORAD_CAT_ID":51639,"ELEMENT_SET_NO":999,"REV_AT_EPOCH":20056,"BSTAR":-0.0018165999999999998,"MEAN_MOTION_DOT":-6.22e-06,"MEAN_MOTION_DDOT":0.0},{"OBJECT_NAME":"ONEWEB-0446","OBJECT_ID":"2022-012U","EPOCH":"2026-04-11T06:45:23.138784","MEAN_MOTION":13.10377402,"ECCENTRICITY":0.0001824,"INCLINATION":87.8833,"RA_OF_ASC_NODE":49.5973,"ARG_OF_PERICENTER":75.8419,"MEAN_ANOMALY":284.2911,"EPHEMERIS_TYPE":0,"CLASSIFICATION_TYPE":"U","NORAD_CAT_ID":51640,"ELEMENT_SET_NO":999,"REV_AT_EPOCH":20056,"BSTAR":-0.00034865000000000004,"MEAN_MOTION_DOT":-1.09e-06,"MEAN_MOTION_DDOT":0.0},{"OBJECT_NAME":"ONEWEB-0448","OBJECT_ID":"2022-012V","EPOCH":"2026-04-11T06:52:36.716448","MEAN_MOTION":13.10377856,"ECCENTRICITY":0.0001897,"INCLINATION":87.883,"RA_OF_ASC_NODE":49.5941,"ARG_OF_PERICENTER":81.271,"MEAN_ANOMALY":278.8632,"EPHEMERIS_TYPE":0,"CLASSIFICATION_TYPE":"U","NORAD_CAT_ID":51641,"ELEMENT_SET_NO":999,"REV_AT_EPOCH":20053,"BSTAR":0.0015551999999999999,"MEAN_MOTION_DOT":5.56e-06,"MEAN_MOTION_DDOT":0.0},{"OBJECT_NAME":"ONEWEB-0449","OBJECT_ID":"2022-012W","EPOCH":"2026-04-11T06:59:43.854720","MEAN_MOTION":13.10377409,"ECCENTRICITY":0.0001597,"INCLINATION":87.884,"RA_OF_ASC_NODE":49.5746,"ARG_OF_PERICENTER":91.5685,"MEAN_ANOMALY":268.5625,"EPHEMERIS_TYPE":0,"CLASSIFICATION_TYPE":"U","NORAD_CAT_ID":51642,"ELEMENT_SET_NO":999,"REV_AT_EPOCH":20054,"BSTAR":0.0011421,"MEAN_MOTION_DOT":4.11e-06,"MEAN_MOTION_DDOT":0.0},{"OBJECT_NAME":"ONEWEB-0451","OBJECT_ID":"2022-012X","EPOCH":"2026-04-11T03:46:22.766016","MEAN_MOTION":13.17648373,"ECCENTRICITY":0.0001625,"INCLINATION":87.9195,"RA_OF_ASC_NODE":19.1503,"ARG_OF_PERICENTER":83.1076,"MEAN_ANOMALY":277.024,"EPHEMERIS_TYPE":0,"CLASSIFICATION_TYPE":"U","NORAD_CAT_ID":51643,"ELEMENT_SET_NO":999,"REV_AT_EPOCH":20483,"BSTAR":0.00011441999999999999,"MEAN_MOTION_DOT":5.7e-07,"MEAN_MOTION_DDOT":0.0},{"OBJECT_NAME":"ONEWEB-0452","OBJECT_ID":"2022-012Y","EPOCH":"2026-04-11T03:43:55.926624","MEAN_MOTION":13.17649008,"ECCENTRICITY":0.0001816,"INCLINATION":87.9187,"RA_OF_ASC_NODE":19.1939,"ARG_OF_PERICENTER":88.2708,"MEAN_ANOMALY":271.8632,"EPHEMERIS_TYPE":0,"CLASSIFICATION_TYPE":"U","NORAD_CAT_ID":51644,"ELEMENT_SET_NO":999,"REV_AT_EPOCH":20484,"BSTAR":0.00011703,"MEAN_MOTION_DOT":5.8e-07,"MEAN_MOTION_DDOT":0.0},{"OBJECT_NAME":"ONEWEB-0456","OBJECT_ID":"2022-012AA","EPOCH":"2026-04-11T07:14:05.989344","MEAN_MOTION":13.10374079,"ECCENTRICITY":0.0002062,"INCLINATION":87.8851,"RA_OF_ASC_NODE":49.5549,"ARG_OF_PERICENTER":80.2487,"MEAN_ANOMALY":279.8873,"EPHEMERIS_TYPE":0,"CLASSIFICATION_TYPE":"U","NORAD_CAT_ID":51646,"ELEMENT_SET_NO":999,"REV_AT_EPOCH":20058,"BSTAR":0.002123,"MEAN_MOTION_DOT":7.54e-06,"MEAN_MOTION_DDOT":0.0},{"OBJECT_NAME":"ONEWEB-0457","OBJECT_ID":"2022-012AB","EPOCH":"2026-04-11T06:40:35.641056","MEAN_MOTION":13.10375495,"ECCENTRICITY":0.0001534,"INCLINATION":87.8834,"RA_OF_ASC_NODE":49.5854,"ARG_OF_PERICENTER":71.8854,"MEAN_ANOMALY":288.2441,"EPHEMERIS_TYPE":0,"CLASSIFICATION_TYPE":"U","NORAD_CAT_ID":51647,"ELEMENT_SET_NO":999,"REV_AT_EPOCH":20058,"BSTAR":-0.001366,"MEAN_MOTION_DOT":-4.64e-06,"MEAN_MOTION_DDOT":0.0},{"OBJECT_NAME":"ONEWEB-0458","OBJECT_ID":"2022-012AC","EPOCH":"2026-04-11T07:11:41.976960","MEAN_MOTION":13.10374399,"ECCENTRICITY":0.0001871,"INCLINATION":87.8836,"RA_OF_ASC_NODE":49.5638,"ARG_OF_PERICENTER":85.0099,"MEAN_ANOMALY":275.1242,"EPHEMERIS_TYPE":0,"CLASSIFICATION_TYPE":"U","NORAD_CAT_ID":51648,"ELEMENT_SET_NO":999,"REV_AT_EPOCH":20054,"BSTAR":0.0019472,"MEAN_MOTION_DOT":6.92e-06,"MEAN_MOTION_DDOT":0.0},{"OBJECT_NAME":"ONEWEB-0461","OBJECT_ID":"2022-012AD","EPOCH":"2026-04-11T04:15:31.450176","MEAN_MOTION":13.17651138,"ECCENTRICITY":0.0001735,"INCLINATION":87.9195,"RA_OF_ASC_NODE":19.1609,"ARG_OF_PERICENTER":75.5124,"MEAN_ANOMALY":284.62,"EPHEMERIS_TYPE":0,"CLASSIFICATION_TYPE":"U","NORAD_CAT_ID":51649,"ELEMENT_SET_NO":999,"REV_AT_EPOCH":20506,"BSTAR":1.3727000000000001e-05,"MEAN_MOTION_DOT":1.8e-07,"MEAN_MOTION_DDOT":0.0},{"OBJECT_NAME":"ONEWEB-0463","OBJECT_ID":"2022-012AE","EPOCH":"2026-04-11T00:10:06.011328","MEAN_MOTION":13.176487,"ECCENTRICITY":0.0001738,"INCLINATION":87.9185,"RA_OF_ASC_NODE":19.2242,"ARG_OF_PERICENTER":74.1931,"MEAN_ANOMALY":285.9392,"EPHEMERIS_TYPE":0,"CLASSIFICATION_TYPE":"U","NORAD_CAT_ID":51650,"ELEMENT_SET_NO":999,"REV_AT_EPOCH":20482,"BSTAR":-8.649700000000001e-05,"MEAN_MOTION_DOT":-2.1e-07,"MEAN_MOTION_DDOT":0.0}]