ONEWEB-0438             
1 51634U 22012N   26101.13710123  .00000268  00000+0  73244-3 0  9992
2 51634  87.8834  49.6226 0001694  82.2050 277.9269 13.10377441200561
ONEWEB-0439             
1 51635U 22012P   26101.29315971  .00000496  00000+0  13847-2 0  9997
2 51635  87.8831  49.5798 0001930  83.2156 276.9191 13.10377286200563
ONEWEB-0442             
1 51636U 22012Q   26101.00110165  .00000045  00000+0  81625-4 0  9996
2 51636  87.9187  19.2224 0001241  85.5396 274.5877 13.17652594204826
ONEWEB-0443             
1 51637U 22012R   26101.24831890  .00000096  00000+0  21532-3 0  9994
2 51637  87.9181  19.1756 0001830  88.7835 271.3506 13.17651426204903
ONEWEB-0444             
1 51638U 22012S   26101.28317460 -.00000001  00000+0 -39240-4 0  9995
2 51638  87.8832  49.5807 0001929  85.4574 274.6773 13.10374332200575
ONEWEB-0445             
1 51639U 22012T   26101.15208641 -.00000622  00000+0 -18166-2 0  9993
2 51639  87.8840  49.5890 0001926  74.0168 286.1172 13.10379963200562
ONEWEB-0446             
1 51640U 22012U   26101.28151781 -.00000109  00000+0 -34865-3 0  9996
2 51640  87.8833  49.5973 0001824  75.8419 284.2911 13.10377402200569
ONEWEB-0448             
1 51641U 22012V   26101.28653607  .00000556  00000+0  15552-2 0  9996
2 51641  87.8830  49.5941 0001897  81.2710 278.8632 13.10377856200536
ONEWEB-0449             
1 51642U 22012W   26101.29147980  .00000411  00000+0  11421-2 0  9991
2 51642  87.8840  49.5746 0001597  91.5685 268.5625 13.10377409200546
ONEWEB-0451             
1 51643U 22012X   26101.15720794  .00000057  00000+0  11442-3 0  9997
2 51643  87.9195  19.1503 0001625  83.1076 277.0240 13.17648373204830
ONEWEB-0452             
1 51644U 22012Y   26101.15550841  .00000058  00000+0  11703-3 0  9993
2 51644  87.9187  19.1939 0001816  88.2708 271.8632 13.17649008204849
ONEWEB-0456             
1 51646U 22012AA  26101.30145821  .00000754  00000+0  21230-2 0  9998
2 51646  87.8851  49.5549 0002062  80.2487 279.8873 13.10374079200580
ONEWEB-0457             
1 51647U 22012AB  26101.27819029 -.00000464  00000+0 -13660-2 0  9991
2 51647  87.8834  49.5854 0001534  71.8854 288.2441 13.10375495200586
ONEWEB-0458             
1 51648U 22012AC  26101.29979140  .00000692  00000+0  19472-2 0  9993
2 51648  87.8836  49.5638 0001871  85.0099 275.1242 13.10374399200543
ONEWEB-0461             
1 51649U 22012AD  26101.17744734  .00000018  00000+0  13727-4 0  9991
2 51649  87.9195  19.1609 0001735  75.5124 284.6200 13.17651138205063
ONEWEB-0463             
1 51650U 22012AE  26101.00701402 -.00000021  00000+0 -86497-4 0  9990
2 51650  87.9185  19.2242 0001738  74.1931 285.9392 13.17648700204822
